{
  "type": "FeatureCollection",
  "features": [
    {
      "type": "Feature",
      "properties": {
        "norad_id": 36744,
        "name": "COMS 1",
        "group": "weather",
        "lat": 3.4614521211680547,
        "lon": 130.68494944638653,
        "alt_km": 35789.9716496884,
        "timestamp": "2025-12-09T18:55:16.881202+00:00",
        "meta_object_name": "COMS 1",
        "meta_object_id": "2010-032A",
        "meta_epoch": "2025-12-09T12:28:14.017152",
        "meta_mean_motion": 1.00271032,
        "meta_eccentricity": 0.00011224,
        "meta_inclination": 4.3336,
        "meta_ra_of_asc_node": 78.0324,
        "meta_arg_of_pericenter": 202.2699,
        "meta_mean_anomaly": 113.4411,
        "meta_ephemeris_type": 0,
        "meta_classification_type": "U",
        "meta_norad_cat_id": 36744,
        "meta_element_set_no": 999,
        "meta_rev_at_epoch": 4918,
        "meta_bstar": 0,
        "meta_mean_motion_dot": -3.42e-06,
        "meta_mean_motion_ddot": 0,
        "tle_line1": "1 36744U 10032A   25343.51960668 -.00000342  00000+0  00000+0 0  9996",
        "tle_line2": "2 36744   4.3336  78.0324 0001122 202.2699 113.4411  1.00271032 49188"
      },
      "geometry": {
        "type": "Point",
        "coordinates": [
          130.68494944638653,
          3.4614521211680547
        ]
      }
    },
    {
      "type": "Feature",
      "properties": {
        "norad_id": 37214,
        "name": "FENGYUN 3B",
        "group": "weather",
        "lat": 47.732205929888146,
        "lon": -146.22438809073245,
        "alt_km": 847.9799612151055,
        "timestamp": "2025-12-09T18:55:16.881226+00:00",
        "meta_object_name": "FENGYUN 3B",
        "meta_object_id": "2010-059A",
        "meta_epoch": "2025-12-09T15:22:31.886112",
        "meta_mean_motion": 14.14787991,
        "meta_eccentricity": 0.00222567,
        "meta_inclination": 98.9904,
        "meta_ra_of_asc_node": 23.5959,
        "meta_arg_of_pericenter": 6.5814,
        "meta_mean_anomaly": 92.5434,
        "meta_ephemeris_type": 0,
        "meta_classification_type": "U",
        "meta_norad_cat_id": 37214,
        "meta_element_set_no": 999,
        "meta_rev_at_epoch": 78062,
        "meta_bstar": 9.9967863e-05,
        "meta_mean_motion_dot": 1.48e-06,
        "meta_mean_motion_ddot": 0,
        "tle_line1": "1 37214U 10059A   25343.64064683  .00000148  00000+0  99968-4 0  9993",
        "tle_line2": "2 37214  98.9904  23.5959 0022256   6.5814  92.5434 14.14787991780623"
      },
      "geometry": {
        "type": "Point",
        "coordinates": [
          -146.22438809073245,
          47.732205929888146
        ]
      }
    },
    {
      "type": "Feature",
      "properties": {
        "norad_id": 37849,
        "name": "SUOMI NPP",
        "group": "weather",
        "lat": -75.24892011414309,
        "lon": -42.91581564305692,
        "alt_km": 835.7158490819374,
        "timestamp": "2025-12-09T18:55:16.881239+00:00",
        "meta_object_name": "SUOMI NPP",
        "meta_object_id": "2011-061A",
        "meta_epoch": "2025-12-09T14:12:50.084640",
        "meta_mean_motion": 14.19512871,
        "meta_eccentricity": 0.0002143,
        "meta_inclination": 98.7769,
        "meta_ra_of_asc_node": 280.9622,
        "meta_arg_of_pericenter": 125.6849,
        "meta_mean_anomaly": 234.4526,
        "meta_ephemeris_type": 0,
        "meta_classification_type": "U",
        "meta_norad_cat_id": 37849,
        "meta_element_set_no": 999,
        "meta_rev_at_epoch": 73154,
        "meta_bstar": 0.00012180768,
        "meta_mean_motion_dot": 2.13e-06,
        "meta_mean_motion_ddot": 0,
        "tle_line1": "1 37849U 11061A   25343.59224635  .00000213  00000+0  12181-3 0  9994",
        "tle_line2": "2 37849  98.7769 280.9622 0002143 125.6849 234.4526 14.19512871731548"
      },
      "geometry": {
        "type": "Point",
        "coordinates": [
          -42.91581564305692,
          -75.24892011414309
        ]
      }
    },
    {
      "type": "Feature",
      "properties": {
        "norad_id": 38552,
        "name": "METEOSAT-10 (MSG-3)",
        "group": "weather",
        "lat": -3.6134729050746524,
        "lon": 2.8199763528595763,
        "alt_km": 35784.23399917421,
        "timestamp": "2025-12-09T18:55:16.881252+00:00",
        "meta_object_name": "METEOSAT-10 (MSG-3)",
        "meta_object_id": "2012-035B",
        "meta_epoch": "2025-12-09T01:35:17.617632",
        "meta_mean_motion": 1.0027383,
        "meta_eccentricity": 8.734e-05,
        "meta_inclination": 4.2204,
        "meta_ra_of_asc_node": 61.7307,
        "meta_arg_of_pericenter": 239.048,
        "meta_mean_anomaly": 161.2485,
        "meta_ephemeris_type": 0,
        "meta_classification_type": "U",
        "meta_norad_cat_id": 38552,
        "meta_element_set_no": 999,
        "meta_rev_at_epoch": 4895,
        "meta_bstar": 0,
        "meta_mean_motion_dot": -5e-08,
        "meta_mean_motion_ddot": 0,
        "tle_line1": "1 38552U 12035B   25343.06617613 -.00000005  00000+0  00000+0 0  9995",
        "tle_line2": "2 38552   4.2204  61.7307 0000873 239.0480 161.2485  1.00273830 48952"
      },
      "geometry": {
        "type": "Point",
        "coordinates": [
          2.8199763528595763,
          -3.6134729050746524
        ]
      }
    },
    {
      "type": "Feature",
      "properties": {
        "norad_id": 38771,
        "name": "METOP-B",
        "group": "weather",
        "lat": 64.47056334964455,
        "lon": -127.54846596386994,
        "alt_km": 812.6653525142119,
        "timestamp": "2025-12-09T18:55:16.881263+00:00",
        "meta_object_name": "METOP-B",
        "meta_object_id": "2012-049A",
        "meta_epoch": "2025-12-09T15:00:28.079136",
        "meta_mean_motion": 14.21406802,
        "meta_eccentricity": 0.00027807,
        "meta_inclination": 98.6803,
        "meta_ra_of_asc_node": 33.6368,
        "meta_arg_of_pericenter": 150.8443,
        "meta_mean_anomaly": 209.289,
        "meta_ephemeris_type": 0,
        "meta_classification_type": "U",
        "meta_norad_cat_id": 38771,
        "meta_element_set_no": 999,
        "meta_rev_at_epoch": 68633,
        "meta_bstar": 0.00014090798,
        "meta_mean_motion_dot": 2.64e-06,
        "meta_mean_motion_ddot": 0,
        "tle_line1": "1 38771U 12049A   25343.62532499  .00000264  00000+0  14091-3 0  9998",
        "tle_line2": "2 38771  98.6803  33.6368 0002780 150.8443 209.2890 14.21406802686337"
      },
      "geometry": {
        "type": "Point",
        "coordinates": [
          -127.54846596386994,
          64.47056334964455
        ]
      }
    },
    {
      "type": "Feature",
      "properties": {
        "norad_id": 39216,
        "name": "INSAT-3D",
        "group": "weather",
        "lat": 1.0640845853508816,
        "lon": 132.111944948622,
        "alt_km": 35789.161451458385,
        "timestamp": "2025-12-09T18:55:16.881276+00:00",
        "meta_object_name": "INSAT-3D",
        "meta_object_id": "2013-038B",
        "meta_epoch": "2025-12-09T14:14:51.431712",
        "meta_mean_motion": 1.00271179,
        "meta_eccentricity": 0.00016371,
        "meta_inclination": 1.437,
        "meta_ra_of_asc_node": 85.0215,
        "meta_arg_of_pericenter": 162.82,
        "meta_mean_anomaly": 174.0005,
        "meta_ephemeris_type": 0,
        "meta_classification_type": "U",
        "meta_norad_cat_id": 39216,
        "meta_element_set_no": 999,
        "meta_rev_at_epoch": 4517,
        "meta_bstar": 0,
        "meta_mean_motion_dot": -3.36e-06,
        "meta_mean_motion_ddot": 0,
        "tle_line1": "1 39216U 13038B   25343.59365083 -.00000336  00000+0  00000+0 0  9993",
        "tle_line2": "2 39216   1.4370  85.0215 0001637 162.8200 174.0005  1.00271179 45177"
      },
      "geometry": {
        "type": "Point",
        "coordinates": [
          132.111944948622,
          1.0640845853508816
        ]
      }
    },
    {
      "type": "Feature",
      "properties": {
        "norad_id": 39260,
        "name": "FENGYUN 3C",
        "group": "weather",
        "lat": 60.45530822932266,
        "lon": -53.64131939031497,
        "alt_km": 842.1965515181182,
        "timestamp": "2025-12-09T18:55:16.881287+00:00",
        "meta_object_name": "FENGYUN 3C",
        "meta_object_id": "2013-052A",
        "meta_epoch": "2025-12-09T13:32:31.045344",
        "meta_mean_motion": 14.15694846,
        "meta_eccentricity": 0.00141045,
        "meta_inclination": 98.476,
        "meta_ra_of_asc_node": 321.3987,
        "meta_arg_of_pericenter": 205.4618,
        "meta_mean_anomaly": 154.5863,
        "meta_ephemeris_type": 0,
        "meta_classification_type": "U",
        "meta_norad_cat_id": 39260,
        "meta_element_set_no": 999,
        "meta_rev_at_epoch": 63173,
        "meta_bstar": 0.00013292321,
        "meta_mean_motion_dot": 2.2e-06,
        "meta_mean_motion_ddot": 0,
        "tle_line1": "1 39260U 13052A   25343.56424821  .00000220  00000+0  13292-3 0  9993",
        "tle_line2": "2 39260  98.4760 321.3987 0014104 205.4618 154.5863 14.15694846631735"
      },
      "geometry": {
        "type": "Point",
        "coordinates": [
          -53.64131939031497,
          60.45530822932266
        ]
      }
    }
  ]
}